NORAD_CAT_ID,OBJECT_NAME,OBJECT_TYPE,EPOCH,MEAN_MOTION,ECCENTRICITY,INCLINATION,RA_OF_ASC_NODE,ARG_OF_PERICENTER,MEAN_ANOMALY,BSTAR,MEAN_MOTION_DOT,MEAN_MOTION_DDOT,TLE_LINE0,TLE_LINE1,TLE_LINE2,SEMIMAJOR_AXIS,PERIOD,APOGEE,PERIGEE,DECAYED
51130.0,STARLINK-3395,PAYLOAD,2022-03-18 06:00:00,15.58154268,0.0001252999999999,53.2173,346.8801,55.0935,261.3977,-0.010137,-0.00712712,0.0,0 STARLINK-3395,1 51130U 22005AC  22077.25001157 -.00712712  00000-0 -10137-1 0  9993,2 51130  53.2173 346.8801 0001253  55.0935 261.3977 15.58154268 10473,6771.136,92.417,393.849,392.153,0.0
51130.0,STARLINK-3395,PAYLOAD,2022-03-18 14:00:01,15.576427300000002,0.0001469,53.2174,345.2635,36.3474,350.686,-0.010315,-0.00711475,0.0,0 STARLINK-3395,1 51130U 22005AC  22077.58334491 -.00711475  00000-0 -10315-1 0  9992,2 51130  53.2174 345.2635 0001469  36.3474 350.6860 15.57642730  3718,6772.618,92.447,395.478,393.489,0.0
51130.0,STARLINK-3395,PAYLOAD,2022-03-18 22:00:00,15.57134262,0.0001665,53.2174,343.6515,35.7319,61.2272,-0.01055,-0.00713707,0.0,0 STARLINK-3395,1 51130U 22005AC  22077.91667824 -.00713707  00000-0 -10550-1 0  9999,2 51130  53.2174 343.6515 0001665  35.7319  61.2272 15.57134262  3769,6774.093000000003,92.478,397.086,394.83,0.0
51130.0,STARLINK-3395,PAYLOAD,2022-03-19 02:00:01,15.56880883,0.0001646,53.2174,342.8459,38.5698,273.1868,-0.010694,-0.00716347,0.0,0 STARLINK-3395,1 51130U 22005AC  22078.08335648 -.00716347  00000-0 -10694-1 0  9996,2 51130  53.2174 342.8459 0001646  38.5698 273.1868 15.56880883 10609,6774.828,92.493,397.8080000000001,395.578,0.0
51130.0,STARLINK-3395,PAYLOAD,2022-03-19 14:00:01,15.56113323,0.0001525,53.2173,340.427,46.499,188.4768,-0.010922,-0.00711323,0.0,0 STARLINK-3395,1 51130U 22005AC  22078.58334491 -.00711323  00000-0 -10922-1 0  9999,2 51130  53.2173 340.4270 0001525  46.4990 188.4768 15.56113323  3698,6777.055,92.538,399.954,397.887,0.0
51130.0,STARLINK-3395,PAYLOAD,2022-03-19 22:00:01,15.55604412,0.0001424,53.2174,338.8187,48.6584,254.4698,-0.011163,-0.00713177,0.0,0 STARLINK-3395,1 51130U 22005AC  22078.91668981 -.00713177  00000-0 -11163-1 0  9997,2 51130  53.2174 338.8187 0001424  48.6584 254.4698 15.55604412  3721,6778.533,92.569,401.364,399.4330000000001,0.0
51130.0,STARLINK-3395,PAYLOAD,2022-03-20 06:00:00,15.55095151,0.0001242,53.2173,337.2109,49.0653,321.473,-0.011378,-0.00713263,0.0,0 STARLINK-3395,1 51130U 22005AC  22079.25001157 -.00713263  00000-0 -11378-1 0  9995,2 51130  53.2173 337.2109 0001242  49.0653 321.4730 15.55095151 10787,6780.013000000001,92.599,402.72,401.036,0.0
51130.0,STARLINK-3395,PAYLOAD,2022-03-20 14:00:01,15.54583851,0.0001405,53.2174,335.6017,43.3676,34.036,-0.011585,-0.00712724,0.0,0 STARLINK-3395,1 51130U 22005AC  22079.58334491 -.00712724  00000-0 -11585-1 0  9992,2 51130  53.2174 335.6017 0001405  43.3676  34.0360 15.54583851  3686,6781.5,92.629,404.317,402.412,0.0
51130.0,STARLINK-3395,PAYLOAD,2022-03-20 22:00:01,15.54073211,0.0001812,53.2174,333.9971,36.1307,107.5874,-0.011778,-0.00711314,0.0,0 STARLINK-3395,1 51130U 22005AC  22079.91668981 -.00711314  00000-0 -11778-1 0  9991,2 51130  53.2174 333.9971 0001812  36.1307 107.5874 15.54073211  3713,6782.985,92.66,406.079,403.621,0.0
51130.0,STARLINK-3395,PAYLOAD,2022-03-21 06:00:00,15.53565902,0.000151,53.2171,332.3926,50.3518,158.9379,-0.012075,-0.00715375,0.0,0 STARLINK-3395,1 51130U 22005AC  22080.25001157 -.00715375  00000-0 -12075-1 0  9998,2 51130  53.2171 332.3926 0001510  50.3518 158.9379 15.53565902 10945,6784.462,92.69,407.351,405.302,0.0
51130.0,STARLINK-3395,PAYLOAD,2022-03-21 14:00:01,15.53053349,0.0001523,53.2173,330.7873,45.4551,228.8613,-0.012221,-0.00710995,0.0,0 STARLINK-3395,1 51130U 22005AC  22080.58334491 -.00710995  00000-0 -12221-1 0  9990,2 51130  53.2173 330.7873 0001523  45.4551 228.8613 15.53053349  3695,6785.954000000002,92.721,408.853,406.786,0.0
51130.0,STARLINK-3395,PAYLOAD,2022-03-21 22:00:00,15.52544834,0.0001609,53.2174,329.1866,38.1133,300.6135,-0.01249,-0.00713143,0.0,0 STARLINK-3395,1 51130U 22005AC  22080.91667824 -.00713143  00000-0 -12490-1 0  9992,2 51130  53.2174 329.1866 0001609  38.1133 300.6135 15.52544834  3691,6787.436,92.751,410.393,408.209,0.0
51130.0,STARLINK-3395,PAYLOAD,2022-03-22 12:00:00,15.51650419,0.0001457,53.2173,326.3841,39.0433,320.9316,-0.012841,-0.00710076,0.0,0 STARLINK-3395,1 51130U 22005AC  22081.50001157 -.00710076  00000-0 -12841-1 0  9991,2 51130  53.2173 326.3841 0001457  39.0433 320.9316 15.51650419 11136,6790.044,92.804,412.898,410.92,0.0
51130.0,STARLINK-3395,PAYLOAD,2022-03-22 14:00:01,15.5152462,0.0001626,53.2172,325.9841,37.5984,68.1152,-0.0129639999999999,-0.00722492,0.0,0 STARLINK-3395,1 51130U 22005AC  22081.58334491 -.00722492  00000-0 -12964-1 0  9990,2 51130  53.2172 325.9841 0001626  37.5984  68.1152 15.51524620  3710,6790.411,92.812,413.38,411.172,0.0
51130.0,STARLINK-3395,PAYLOAD,2022-03-22 22:00:01,15.51013258,0.0001932,53.2171,324.387,35.2999,133.0515,-0.013149,-0.00719729,0.0,0 STARLINK-3395,1 51130U 22005AC  22081.91668981 -.00719729  00000-0 -13149-1 0  9996,2 51130  53.2171 324.3870 0001932  35.2999 133.0515 15.51013258  3709,6791.903,92.843,415.081,412.456,0.0
51130.0,STARLINK-3395,PAYLOAD,2022-03-23 14:00:01,15.4999335,0.0001486,53.2173,321.1918,46.7865,244.8098,-0.013634,-0.00719503,0.0,0 STARLINK-3395,1 51130U 22005AC  22082.58334491 -.00719503  00000-0 -13634-1 0  9995,2 51130  53.2173 321.1918 0001486  46.7865 244.8098 15.49993350 11301,6794.8830000000025,92.904,417.757,415.73800000000006,0.0
51130.0,STARLINK-3395,PAYLOAD,2022-03-23 22:00:00,15.49436333,0.0001708,53.2174,319.5995,37.6464,314.6928,-0.01151,-0.00596682,0.0,0 STARLINK-3395,1 51130U 22005AC  22082.91667824 -.00596682  00000-0 -11510-1 0  9993,2 51130  53.2174 319.5995 0001708  37.6464 314.6928 15.49436333  3716,6796.511,92.937,419.537,417.215,0.0
51130.0,STARLINK-3395,PAYLOAD,2022-03-24 06:00:00,15.48949678,0.0001295,53.2173,318.0071,54.5986,357.8546,-5.3579e-05,-3.387e-05,0.0,0 STARLINK-3395,1 51130U 22005AC  22083.25001157 -.00003387  00000-0 -53579-4 0  9991,2 51130  53.2173 318.0071 0001295  54.5986 357.8546 15.48949678 11402,6797.934,92.966,420.68,418.919,0.0
51130.0,STARLINK-3395,PAYLOAD,2022-03-24 14:00:01,15.48876179,0.0001671,53.2171,316.4161,44.6659,67.6096,0.0021261999999999,0.00117788,0.0,0 STARLINK-3395,1 51130U 22005AC  22083.58334491  .00117788  00000-0  21262-2 0  9998,2 51130  53.2171 316.4161 0001671  44.6659  67.6096 15.48876179  3689,6798.149,92.971,421.15,418.878,0.0
51130.0,STARLINK-3395,PAYLOAD,2022-03-24 22:00:00,15.49037453,0.0001795,53.214,314.8349,46.1202,126.1305,0.00022492,0.00011962,0.0,0 STARLINK-3395,1 51130U 22005AC  22083.91667824  .00011962  00000-0  22492-3 0  9998,2 51130  53.2140 314.8349 0001795  46.1202 126.1305 15.49037453 11513,6797.678000000001,92.961,420.763,418.322,0.0
51130.0,STARLINK-3395,PAYLOAD,2022-03-25 06:00:00,15.49095335,0.0001608,53.2134,313.2433,40.6098,191.5614,-0.00066339,-0.00036893,0.0,0 STARLINK-3395,1 51130U 22005AC  22084.25001157 -.00036893  00000-0 -66339-3 0  9997,2 51130  53.2134 313.2433 0001608  40.6098 191.5614 15.49095335 11565,6797.5080000000025,92.957,420.466,418.28,0.0
51130.0,STARLINK-3395,PAYLOAD,2022-03-25 14:00:01,15.49068252,0.0001347,53.2137,311.6507,41.917,250.1915,-0.00069266,-0.00038456,0.0,0 STARLINK-3395,1 51130U 22005AC  22084.58334491 -.00038456  00000-0 -69266-3 0  9992,2 51130  53.2137 311.6507 0001347  41.9170 250.1915 15.49068252  3685,6797.587,92.959,420.36800000000005,418.537,0.0
51130.0,STARLINK-3395,PAYLOAD,2022-03-25 20:00:01,15.49103197,0.0001393,53.2136,310.459,34.7594,212.2833,-0.0044984,-0.00241308,0.0,0 STARLINK-3395,1 51130U 22005AC  22084.83334491 -.00241308  00000-0 -44984-2 0  9991,2 51130  53.2136 310.4590 0001393  34.7594 212.2833 15.49103197 11656,6797.485,92.957,420.297,418.403,0.0
51130.0,STARLINK-3395,PAYLOAD,2022-03-25 22:00:01,15.49067211,0.0001439,53.2135,310.0611,31.811,320.28,-0.0045442,-0.00243389,0.0,0 STARLINK-3395,1 51130U 22005AC  22084.91668981 -.00243389  00000-0 -45442-2 0  9995,2 51130  53.2135 310.0611 0001439  31.8110 320.2800 15.49067211  3749,6797.590999999999,92.959,420.434,418.477,0.0
51130.0,STARLINK-3395,PAYLOAD,2022-03-26 06:00:00,15.48914817,0.0001477,53.2135,308.4697,30.0804,21.8792,-0.00085342,-0.00046975,0.0,0 STARLINK-3395,1 51130U 22005AC  22085.25001157 -.00046975  00000-0 -85342-3 0  9995,2 51130  53.2135 308.4697 0001477  30.0804  21.8792 15.48914817 11719,6798.036,92.968,420.905,418.897,0.0
51130.0,STARLINK-3395,PAYLOAD,2022-03-26 14:00:01,15.48893086,0.0001506999999999,53.2139,306.8776,42.5128,69.1535,-0.00037766,-0.00021089,0.0,0 STARLINK-3395,1 51130U 22005AC  22085.58334491 -.00021089  00000-0 -37766-3 0  9997,2 51130  53.2139 306.8776 0001507  42.5128  69.1535 15.48893086  3663,6798.1,92.97,420.989,418.941,0.0
51130.0,STARLINK-3395,PAYLOAD,2022-03-26 22:00:00,15.48857714,0.0001814,53.214,305.2888,39.8685,131.5142,-0.00031524,-0.00017663,0.0,0 STARLINK-3395,1 51130U 22005AC  22085.91667824 -.00017663  00000-0 -31524-3 0  9992,2 51130  53.2140 305.2888 0001814  39.8685 131.5142 15.48857714  3699,6798.203,92.972,421.302,418.835,0.0
51130.0,STARLINK-3395,PAYLOAD,2022-03-27 06:00:00,15.48865519,0.0001798,53.214,303.6975,38.7218,192.3348,-0.00055607,-0.00030774,0.0,0 STARLINK-3395,1 51130U 22005AC  22086.25001157 -.00030774  00000-0 -55607-3 0  9997,2 51130  53.2140 303.6975 0001798  38.7218 192.3348 15.48865519 11873,6798.181,92.971,421.268,418.823,0.0
51130.0,STARLINK-3395,PAYLOAD,2022-03-27 14:00:01,15.48860702,0.0001740999999999,53.2143,302.1055,44.5282,246.219,0.0017954999999999,0.00099105,0.0,0 STARLINK-3395,1 51130U 22005AC  22086.58334491  .00099105  00000-0  17955-2 0  9997,2 51130  53.2143 302.1055 0001741  44.5282 246.2190 15.48860702 11922,6798.195,92.972,421.24300000000005,418.876,0.0
